start=new Date('2022-09-21T00:00:00.000Z').valueOf();
sats=[{"FILE":"3578945","MEAN_MOTION":"15.08843832","ELEMENT_SET_NO":"999","INCLINATION":"53.2211","APOAPSIS":"541.027","RCS_SIZE":"LARGE","EPOCH":"2022-09-20T17:52:08.787360","MEAN_MOTION_DDOT":"0.0000000000000","TIME_SYSTEM":"UTC","EPHEMERIS_TYPE":"0","LAUNCH_DATE":"2022-04-21","REV_AT_EPOCH":"2475","RA_OF_ASC_NODE":"12.1595","OBJECT_TYPE":"PAYLOAD","NORAD_CAT_ID":"52313","CLASSIFICATION_TYPE":"U","DECAY_DATE":null,"MEAN_ANOMALY":"311.7308","BSTAR":"-0.00001228200000","TLE_LINE2":"2 52313  53.2211  12.1595 0001869  48.3844 311.7308 15.08843832 24751","ECCENTRICITY":"0.00018690","COUNTRY_CODE":"US","MEAN_MOTION_DOT":"-0.00000484","MEAN_ELEMENT_THEORY":"SGP4","SEMIMAJOR_AXIS":"6917.869","PERIOD":"95.437","GP_ID":"213124174","PERIAPSIS":"538.441","SITE":"AFETR","REF_FRAME":"TEME","CENTER_NAME":"EARTH","ARG_OF_PERICENTER":"48.3844","OBJECT_NAME":"STARLINK-3749","OBJECT_ID":"2022-041BE","TLE_LINE1":"1 52313U 22041BE  22263.74454615 -.00000484  00000-0 -12282-4 0  9991"},{"LAUNCH_DATE":"2022-04-29","EPHEMERIS_TYPE":"0","REV_AT_EPOCH":"2446","BSTAR":"-0.00011342000000","TLE_LINE2":"2 52331  53.2167 134.0055 0001925  49.6257 310.4903 15.08823991 24460","NORAD_CAT_ID":"52331","OBJECT_TYPE":"PAYLOAD","RA_OF_ASC_NODE":"134.0055","CLASSIFICATION_TYPE":"U","DECAY_DATE":null,"MEAN_ANOMALY":"310.4903","INCLINATION":"53.2167","FILE":"3578736","MEAN_MOTION":"15.08823991","ELEMENT_SET_NO":"999","EPOCH":"2022-09-20T08:03:55.616832","RCS_SIZE":"LARGE","APOAPSIS":"541.126","MEAN_MOTION_DDOT":"0.0000000000000","TIME_SYSTEM":"UTC","SITE":"AFETR","CENTER_NAME":"EARTH","OBJECT_NAME":"STARLINK-3889","ARG_OF_PERICENTER":"49.6257","TLE_LINE1":"1 52331U 22045A   22263.33606038 -.00002092  00000-0 -11342-3 0  9990","OBJECT_ID":"2022-045A","REF_FRAME":"TEME","MEAN_ELEMENT_THEORY":"SGP4","SEMIMAJOR_AXIS":"6917.929","PERIOD":"95.439","ECCENTRICITY":"0.00019250","COUNTRY_CODE":"US","MEAN_MOTION_DOT":"-0.00002092","PERIAPSIS":"538.463","GP_ID":"213072438"},{"GP_ID":"213073187","PERIAPSIS":"538.303","MEAN_MOTION_DOT":"-0.00000128","ECCENTRICITY":"0.00021450","COUNTRY_CODE":"US","MEAN_ELEMENT_THEORY":"SGP4","SEMIMAJOR_AXIS":"6917.922","PERIOD":"95.438","REF_FRAME":"TEME","ARG_OF_PERICENTER":"55.6022","OBJECT_NAME":"STARLINK-3831","OBJECT_ID":"2022-045B","TLE_LINE1":"1 52332U 22045B   22263.34711351 -.00000128  00000-0  10103-4 0  9999","CENTER_NAME":"EARTH","SITE":"AFETR","RCS_SIZE":"LARGE","APOAPSIS":"541.271","MEAN_MOTION_DDOT":"0.0000000000000","TIME_SYSTEM":"UTC","EPOCH":"2022-09-20T08:19:50.607264","ELEMENT_SET_NO":"999","FILE":"3578736","MEAN_MOTION":"15.08826352","INCLINATION":"53.2176","DECAY_DATE":null,"MEAN_ANOMALY":"304.5173","OBJECT_TYPE":"PAYLOAD","NORAD_CAT_ID":"52332","RA_OF_ASC_NODE":"133.9455","CLASSIFICATION_TYPE":"U","TLE_LINE2":"2 52332  53.2176 133.9455 0002145  55.6022 304.5173 15.08826352 24462","BSTAR":"0.00001010300000","EPHEMERIS_TYPE":"0","LAUNCH_DATE":"2022-04-29","REV_AT_EPOCH":"2446"},{"RCS_SIZE":"LARGE","MEAN_MOTION_DDOT":"0.0000000000000","APOAPSIS":"541.032","EPOCH":"2022-09-20T00:17:36.292704","TIME_SYSTEM":"UTC","ELEMENT_SET_NO":"999","FILE":"3578736","MEAN_MOTION":"15.08833467","INCLINATION":"53.2166","DECAY_DATE":null,"MEAN_ANOMALY":"313.4016","OBJECT_TYPE":"PAYLOAD","NORAD_CAT_ID":"52333","RA_OF_ASC_NODE":"135.4491","CLASSIFICATION_TYPE":"U","TLE_LINE2":"2 52333  53.2166 135.4491 0001831  46.7129 313.4016 15.08833467 24403","BSTAR":"0.00001410200000","EPHEMERIS_TYPE":"0","LAUNCH_DATE":"2022-04-29","REV_AT_EPOCH":"2440","GP_ID":"213072926","PERIAPSIS":"538.499","MEAN_MOTION_DOT":"-0.00000064","ECCENTRICITY":"0.00018310","COUNTRY_CODE":"US","MEAN_ELEMENT_THEORY":"SGP4","SEMIMAJOR_AXIS":"6917.900","PERIOD":"95.438","REF_FRAME":"TEME","ARG_OF_PERICENTER":"46.7129","OBJECT_NAME":"STARLINK-3847","OBJECT_ID":"2022-045C","TLE_LINE1":"1 52333U 22045C   22263.01222561 -.00000064  00000-0  14102-4 0  9996","CENTER_NAME":"EARTH","SITE":"AFETR"},{"REF_FRAME":"TEME","CENTER_NAME":"EARTH","ARG_OF_PERICENTER":"36.8685","OBJECT_NAME":"STARLINK-3880","OBJECT_ID":"2022-045D","TLE_LINE1":"1 52334U 22045D   22263.06742910  .00002447  00000-0  17191-3 0  9993","SITE":"AFETR","GP_ID":"213072187","PERIAPSIS":"538.291","ECCENTRICITY":"0.00021890","COUNTRY_CODE":"US","MEAN_MOTION_DOT":"0.00002447","MEAN_ELEMENT_THEORY":"SGP4","SEMIMAJOR_AXIS":"6917.941","PERIOD":"95.439","RA_OF_ASC_NODE":"135.2166","OBJECT_TYPE":"PAYLOAD","NORAD_CAT_ID":"52334","CLASSIFICATION_TYPE":"U","DECAY_DATE":null,"MEAN_ANOMALY":"323.2457","BSTAR":"0.00017191000000","TLE_LINE2":"2 52334  53.2179 135.2166 0002189  36.8685 323.2457 15.08820254 24418","LAUNCH_DATE":"2022-04-29","EPHEMERIS_TYPE":"0","REV_AT_EPOCH":"2441","RCS_SIZE":"LARGE","APOAPSIS":"541.320","TIME_SYSTEM":"UTC","MEAN_MOTION_DDOT":"0.0000000000000","EPOCH":"2022-09-20T01:37:05.874240","FILE":"3578736","MEAN_MOTION":"15.08820254","ELEMENT_SET_NO":"999","INCLINATION":"53.2179"},{"TLE_LINE2":"2 52335  53.2175 131.6692 0001727  52.5770 307.5379 15.08840626 24543","BSTAR":"0.00003760100000","MEAN_ANOMALY":"307.5379","DECAY_DATE":null,"CLASSIFICATION_TYPE":"U","OBJECT_TYPE":"PAYLOAD","RA_OF_ASC_NODE":"131.6692","NORAD_CAT_ID":"52335","REV_AT_EPOCH":"2454","LAUNCH_DATE":"2022-04-29","EPHEMERIS_TYPE":"0","RCS_SIZE":"LARGE","APOAPSIS":"540.938","MEAN_MOTION_DDOT":"0.0000000000000","TIME_SYSTEM":"UTC","EPOCH":"2022-09-20T20:36:25.487712","INCLINATION":"53.2175","ELEMENT_SET_NO":"999","MEAN_MOTION":"15.08840626","FILE":"3578945","OBJECT_ID":"2022-045E","TLE_LINE1":"1 52335U 22045E   22263.85862833  .00000310  00000-0  37601-4 0  9994","OBJECT_NAME":"STARLINK-3814","ARG_OF_PERICENTER":"52.5770","CENTER_NAME":"EARTH","REF_FRAME":"TEME","SITE":"AFETR","PERIAPSIS":"538.549","GP_ID":"213125427","PERIOD":"95.438","MEAN_ELEMENT_THEORY":"SGP4","SEMIMAJOR_AXIS":"6917.878","MEAN_MOTION_DOT":"0.00000310","COUNTRY_CODE":"US","ECCENTRICITY":"0.00017270"},{"ARG_OF_PERICENTER":"53.9282","OBJECT_NAME":"STARLINK-3823","TLE_LINE1":"1 52336U 22045F   22263.85222380 -.00000133  00000-0  97515-5 0  9997","OBJECT_ID":"2022-045F","CENTER_NAME":"EARTH","REF_FRAME":"TEME","SITE":"AFETR","PERIAPSIS":"538.606","GP_ID":"213124176","MEAN_ELEMENT_THEORY":"SGP4","SEMIMAJOR_AXIS":"6917.893","PERIOD":"95.438","MEAN_MOTION_DOT":"-0.00000133","ECCENTRICITY":"0.00016660","COUNTRY_CODE":"US","TLE_LINE2":"2 52336  53.2178 131.6963 0001666  53.9282 306.1865 15.08835729 24546","BSTAR":"0.00000975150000","DECAY_DATE":null,"MEAN_ANOMALY":"306.1865","RA_OF_ASC_NODE":"131.6963","OBJECT_TYPE":"PAYLOAD","NORAD_CAT_ID":"52336","CLASSIFICATION_TYPE":"U","LAUNCH_DATE":"2022-04-29","EPHEMERIS_TYPE":"0","REV_AT_EPOCH":"2454","APOAPSIS":"540.911","RCS_SIZE":"LARGE","MEAN_MOTION_DDOT":"0.0000000000000","TIME_SYSTEM":"UTC","EPOCH":"2022-09-20T20:27:12.136320","INCLINATION":"53.2178","ELEMENT_SET_NO":"999","FILE":"3578945","MEAN_MOTION":"15.08835729"},{"ELEMENT_SET_NO":"999","FILE":"3578736","MEAN_MOTION":"15.08842815","INCLINATION":"53.2161","RCS_SIZE":"LARGE","APOAPSIS":"541.095","MEAN_MOTION_DDOT":"0.0000000000000","TIME_SYSTEM":"UTC","EPOCH":"2022-09-20T08:09:13.882464","EPHEMERIS_TYPE":"0","LAUNCH_DATE":"2022-04-29","REV_AT_EPOCH":"2446","DECAY_DATE":null,"MEAN_ANOMALY":"313.1564","OBJECT_TYPE":"PAYLOAD","RA_OF_ASC_NODE":"133.9826","NORAD_CAT_ID":"52337","CLASSIFICATION_TYPE":"U","TLE_LINE2":"2 52337  53.2161 133.9826 0001963  46.9593 313.1564 15.08842815 24468","BSTAR":"0.00007779700000","MEAN_MOTION_DOT":"0.00000950","ECCENTRICITY":"0.00019630","COUNTRY_CODE":"US","SEMIMAJOR_AXIS":"6917.872","MEAN_ELEMENT_THEORY":"SGP4","PERIOD":"95.437","GP_ID":"213073426","PERIAPSIS":"538.379","SITE":"AFETR","REF_FRAME":"TEME","ARG_OF_PERICENTER":"46.9593","OBJECT_NAME":"STARLINK-3797","TLE_LINE1":"1 52337U 22045G   22263.33974401  .00000950  00000-0  77797-4 0  9994","OBJECT_ID":"2022-045G","CENTER_NAME":"EARTH"},{"APOAPSIS":"540.863","RCS_SIZE":"LARGE","EPOCH":"2022-09-20T15:25:09.751008","MEAN_MOTION_DDOT":"0.0000000000000","TIME_SYSTEM":"UTC","INCLINATION":"53.2181","FILE":"3578945","MEAN_MOTION":"15.08836912","ELEMENT_SET_NO":"999","BSTAR":"-0.00000944730000","TLE_LINE2":"2 52338  53.2181 132.6318 0001602  71.6439 288.4727 15.08836912 24519","NORAD_CAT_ID":"52338","OBJECT_TYPE":"PAYLOAD","RA_OF_ASC_NODE":"132.6318","CLASSIFICATION_TYPE":"U","DECAY_DATE":null,"MEAN_ANOMALY":"288.4727","EPHEMERIS_TYPE":"0","LAUNCH_DATE":"2022-04-29","REV_AT_EPOCH":"2451","PERIAPSIS":"538.647","GP_ID":"213124677","SEMIMAJOR_AXIS":"6917.890","MEAN_ELEMENT_THEORY":"SGP4","PERIOD":"95.438","ECCENTRICITY":"0.00016020","COUNTRY_CODE":"US","MEAN_MOTION_DOT":"-0.00000438","CENTER_NAME":"EARTH","OBJECT_NAME":"STARLINK-3815","ARG_OF_PERICENTER":"71.6439","TLE_LINE1":"1 52338U 22045H   22263.64247397 -.00000438  00000-0 -94473-5 0  9990","OBJECT_ID":"2022-045H","REF_FRAME":"TEME","SITE":"AFETR"},{"GP_ID":"213124928","PERIAPSIS":"538.480","MEAN_MOTION_DOT":"-0.00001017","COUNTRY_CODE":"US","ECCENTRICITY":"0.00018180","PERIOD":"95.437","MEAN_ELEMENT_THEORY":"SGP4","SEMIMAJOR_AXIS":"6917.872","REF_FRAME":"TEME","TLE_LINE1":"1 52339U 22045J   22263.77862508 -.00001017  00000-0 -45809-4 0  9994","OBJECT_ID":"2022-045J","ARG_OF_PERICENTER":"48.5810","OBJECT_NAME":"STARLINK-3792","CENTER_NAME":"EARTH","SITE":"AFETR","RCS_SIZE":"LARGE","APOAPSIS":"540.995","TIME_SYSTEM":"UTC","MEAN_MOTION_DDOT":"0.0000000000000","EPOCH":"2022-09-20T18:41:13.206912","ELEMENT_SET_NO":"999","MEAN_MOTION":"15.08842597","FILE":"3578945","INCLINATION":"53.2197","MEAN_ANOMALY":"311.5338","DECAY_DATE":null,"CLASSIFICATION_TYPE":"U","OBJECT_TYPE":"PAYLOAD","NORAD_CAT_ID":"52339","RA_OF_ASC_NODE":"132.0288","TLE_LINE2":"2 52339  53.2197 132.0288 0001818  48.5810 311.5338 15.08842597 24536","BSTAR":"-0.00004580900000","REV_AT_EPOCH":"2453","EPHEMERIS_TYPE":"0","LAUNCH_DATE":"2022-04-29"}];
